[{"OBJECT_NAME":"GAOFEN-3 02","OBJECT_ID":"2021-109A","EPOCH":"2026-03-09T23:26:55.915584","MEAN_MOTION":14.42215794,"ECCENTRICITY":0.00015915,"INCLINATION":98.4134,"RA_OF_ASC_NODE":78.4682,"ARG_OF_PERICENTER":307.7744,"MEAN_ANOMALY":52.3302,"EPHEMERIS_TYPE":0,"CLASSIFICATION_TYPE":"U","NORAD_CAT_ID":49495,"ELEMENT_SET_NO":999,"REV_AT_EPOCH":22601,"BSTAR":5.592981e-6,"MEAN_MOTION_DOT":-2.5e-7,"MEAN_MOTION_DDOT":0},{"OBJECT_NAME":"COSMOS 1331","OBJECT_ID":"1982-001A","EPOCH":"2026-03-09T21:21:46.034496","MEAN_MOTION":14.37696783,"ECCENTRICITY":0.00245515,"INCLINATION":74.0499,"RA_OF_ASC_NODE":338.5644,"ARG_OF_PERICENTER":306.5469,"MEAN_ANOMALY":53.3424,"EPHEMERIS_TYPE":0,"CLASSIFICATION_TYPE":"U","NORAD_CAT_ID":13027,"ELEMENT_SET_NO":999,"REV_AT_EPOCH":31330,"BSTAR":7.9055569e-5,"MEAN_MOTION_DOT":2.12e-6,"MEAN_MOTION_DDOT":0}]
